[{"OBJECT_NAME":"STARLINK-5788","OBJECT_ID":"2023-090AZ","EPOCH":"2025-07-30T20:06:42.555456","MEAN_MOTION":15.02536263,"ECCENTRICITY":0.0001207,"INCLINATION":43.0045,"RA_OF_ASC_NODE":26.8901,"ARG_OF_PERICENTER":265.6555,"MEAN_ANOMALY":94.415,"EPHEMERIS_TYPE":0,"CLASSIFICATION_TYPE":"U","NORAD_CAT_ID":57148,"ELEMENT_SET_NO":999,"REV_AT_EPOCH":11605,"BSTAR":1.24e-5,"MEAN_MOTION_DOT":-3.6e-7,"MEAN_MOTION_DDOT":0},{"OBJECT_NAME":"STARLINK-5778","OBJECT_ID":"2023-090BA","EPOCH":"2025-07-30T11:01:50.697120","MEAN_MOTION":15.02536086,"ECCENTRICITY":0.0001345,"INCLINATION":43.0049,"RA_OF_ASC_NODE":3.167,"ARG_OF_PERICENTER":268.4996,"MEAN_ANOMALY":91.5693,"EPHEMERIS_TYPE":0,"CLASSIFICATION_TYPE":"U","NORAD_CAT_ID":57149,"ELEMENT_SET_NO":999,"REV_AT_EPOCH":11743,"BSTAR":3.7412e-5,"MEAN_MOTION_DOT":3.02e-6,"MEAN_MOTION_DDOT":0},{"OBJECT_NAME":"STARLINK-5780","OBJECT_ID":"2023-090BB","EPOCH":"2025-07-30T04:30:12.566880","MEAN_MOTION":15.02531873,"ECCENTRICITY":0.0001197,"INCLINATION":43.0049,"RA_OF_ASC_NODE":30.6114,"ARG_OF_PERICENTER":275.5205,"MEAN_ANOMALY":84.5501,"EPHEMERIS_TYPE":0,"CLASSIFICATION_TYPE":"U","NORAD_CAT_ID":57150,"ELEMENT_SET_NO":999,"REV_AT_EPOCH":11709,"BSTAR":3.7511e-5,"MEAN_MOTION_DOT":3.03e-6,"MEAN_MOTION_DDOT":0},{"OBJECT_NAME":"STARLINK-5776","OBJECT_ID":"2023-090BC","EPOCH":"2025-07-30T04:28:36.424416","MEAN_MOTION":15.02534953,"ECCENTRICITY":0.000106,"INCLINATION":43.0033,"RA_OF_ASC_NODE":30.5997,"ARG_OF_PERICENTER":274.7304,"MEAN_ANOMALY":85.3418,"EPHEMERIS_TYPE":0,"CLASSIFICATION_TYPE":"U","NORAD_CAT_ID":57151,"ELEMENT_SET_NO":999,"REV_AT_EPOCH":11595,"BSTAR":4.214e-5,"MEAN_MOTION_DOT":3.66e-6,"MEAN_MOTION_DDOT":0},{"OBJECT_NAME":"STARLINK-6164","OBJECT_ID":"2023-090BD","EPOCH":"2025-07-30T18:54:57.855168","MEAN_MOTION":15.02530394,"ECCENTRICITY":0.0001145,"INCLINATION":43.0036,"RA_OF_ASC_NODE":27.3772,"ARG_OF_PERICENTER":273.6415,"MEAN_ANOMALY":86.4296,"EPHEMERIS_TYPE":0,"CLASSIFICATION_TYPE":"U","NORAD_CAT_ID":57152,"ELEMENT_SET_NO":999,"REV_AT_EPOCH":11604,"BSTAR":-4.1008e-5,"MEAN_MOTION_DOT":-7.57e-6,"MEAN_MOTION_DDOT":0},{"OBJECT_NAME":"STARLINK-5879","OBJECT_ID":"2023-090BE","EPOCH":"2025-07-30T17:53:09.908448","MEAN_MOTION":15.02532812,"ECCENTRICITY":0.0001168,"INCLINATION":43.0049,"RA_OF_ASC_NODE":14.8936,"ARG_OF_PERICENTER":272.2896,"MEAN_ANOMALY":87.7813,"EPHEMERIS_TYPE":0,"CLASSIFICATION_TYPE":"U","NORAD_CAT_ID":57153,"ELEMENT_SET_NO":999,"REV_AT_EPOCH":11618,"BSTAR":7.1699e-6,"MEAN_MOTION_DOT":-1.07e-6,"MEAN_MOTION_DDOT":0},{"OBJECT_NAME":"STARLINK-6106","OBJECT_ID":"2023-090BF","EPOCH":"2025-07-30T18:42:10.538496","MEAN_MOTION":15.02532534,"ECCENTRICITY":0.0001081,"INCLINATION":43.004,"RA_OF_ASC_NODE":27.3091,"ARG_OF_PERICENTER":277.6173,"MEAN_ANOMALY":82.4547,"EPHEMERIS_TYPE":0,"CLASSIFICATION_TYPE":"U","NORAD_CAT_ID":57154,"ELEMENT_SET_NO":999,"REV_AT_EPOCH":11604,"BSTAR":-1.2041e-5,"MEAN_MOTION_DOT":-3.66e-6,"MEAN_MOTION_DDOT":0},{"OBJECT_NAME":"STARLINK-6108","OBJECT_ID":"2023-090BG","EPOCH":"2025-07-30T19:57:07.145280","MEAN_MOTION":15.02537509,"ECCENTRICITY":0.0001289,"INCLINATION":43.0042,"RA_OF_ASC_NODE":26.838,"ARG_OF_PERICENTER":264.5305,"MEAN_ANOMALY":95.539,"EPHEMERIS_TYPE":0,"CLASSIFICATION_TYPE":"U","NORAD_CAT_ID":57155,"ELEMENT_SET_NO":999,"REV_AT_EPOCH":11605,"BSTAR":-9.5667e-6,"MEAN_MOTION_DOT":-3.33e-6,"MEAN_MOTION_DDOT":0},{"OBJECT_NAME":"STARLINK-6137","OBJECT_ID":"2023-090BH","EPOCH":"2025-07-29T20:05:59.820288","MEAN_MOTION":15.02532292,"ECCENTRICITY":0.0001328,"INCLINATION":43.0046,"RA_OF_ASC_NODE":32.2812,"ARG_OF_PERICENTER":270.1697,"MEAN_ANOMALY":89.8994,"EPHEMERIS_TYPE":0,"CLASSIFICATION_TYPE":"U","NORAD_CAT_ID":57156,"ELEMENT_SET_NO":999,"REV_AT_EPOCH":11704,"BSTAR":4.4355e-5,"MEAN_MOTION_DOT":3.95e-6,"MEAN_MOTION_DDOT":0},{"OBJECT_NAME":"STARLINK-5525","OBJECT_ID":"2023-094A","EPOCH":"2025-07-30T13:49:31.805184","MEAN_MOTION":15.02535216,"ECCENTRICITY":3.18e-5,"INCLINATION":43.0021,"RA_OF_ASC_NODE":157.6363,"ARG_OF_PERICENTER":298.2782,"MEAN_ANOMALY":61.8028,"EPHEMERIS_TYPE":0,"CLASSIFICATION_TYPE":"U","NORAD_CAT_ID":57218,"ELEMENT_SET_NO":999,"REV_AT_EPOCH":11370,"BSTAR":4.8577e-5,"MEAN_MOTION_DOT":4.53e-6,"MEAN_MOTION_DDOT":0},{"OBJECT_NAME":"STARLINK-5520","OBJECT_ID":"2023-094B","EPOCH":"2025-07-30T13:44:43.694016","MEAN_MOTION":15.02540144,"ECCENTRICITY":9.03e-5,"INCLINATION":43.0021,"RA_OF_ASC_NODE":157.6147,"ARG_OF_PERICENTER":276.0991,"MEAN_ANOMALY":83.9748,"EPHEMERIS_TYPE":0,"CLASSIFICATION_TYPE":"U","NORAD_CAT_ID":57219,"ELEMENT_SET_NO":999,"REV_AT_EPOCH":11388,"BSTAR":7.922e-5,"MEAN_MOTION_DOT":8.67e-6,"MEAN_MOTION_DDOT":0},{"OBJECT_NAME":"STARLINK-5880","OBJECT_ID":"2023-094C","EPOCH":"2025-07-30T05:23:42.996480","MEAN_MOTION":15.0253527,"ECCENTRICITY":0.0001233,"INCLINATION":43.0028,"RA_OF_ASC_NODE":159.3003,"ARG_OF_PERICENTER":266.8693,"MEAN_ANOMALY":93.2008,"EPHEMERIS_TYPE":0,"CLASSIFICATION_TYPE":"U","NORAD_CAT_ID":57220,"ELEMENT_SET_NO":999,"REV_AT_EPOCH":11365,"BSTAR":4.4442e-5,"MEAN_MOTION_DOT":3.97e-6,"MEAN_MOTION_DDOT":0},{"OBJECT_NAME":"STARLINK-5875","OBJECT_ID":"2023-094D","EPOCH":"2025-07-30T05:42:53.873856","MEAN_MOTION":15.02535377,"ECCENTRICITY":8.59e-5,"INCLINATION":43.0024,"RA_OF_ASC_NODE":159.4039,"ARG_OF_PERICENTER":276.2664,"MEAN_ANOMALY":83.808,"EPHEMERIS_TYPE":0,"CLASSIFICATION_TYPE":"U","NORAD_CAT_ID":57221,"ELEMENT_SET_NO":999,"REV_AT_EPOCH":11365,"BSTAR":3.4399e-5,"MEAN_MOTION_DOT":2.61e-6,"MEAN_MOTION_DDOT":0},{"OBJECT_NAME":"STARLINK-5870","OBJECT_ID":"2023-094E","EPOCH":"2025-07-30T13:31:56.765280","MEAN_MOTION":15.02548293,"ECCENTRICITY":9.47e-5,"INCLINATION":43.0027,"RA_OF_ASC_NODE":157.5476,"ARG_OF_PERICENTER":279.6149,"MEAN_ANOMALY":80.4586,"EPHEMERIS_TYPE":0,"CLASSIFICATION_TYPE":"U","NORAD_CAT_ID":57222,"ELEMENT_SET_NO":999,"REV_AT_EPOCH":11433,"BSTAR":-8.87e-5,"MEAN_MOTION_DOT":-1.402e-5,"MEAN_MOTION_DDOT":0},{"OBJECT_NAME":"STARLINK-5519","OBJECT_ID":"2023-094F","EPOCH":"2025-07-30T13:36:44.658720","MEAN_MOTION":15.02534589,"ECCENTRICITY":0.0001075,"INCLINATION":43.0009,"RA_OF_ASC_NODE":157.5677,"ARG_OF_PERICENTER":271.3606,"MEAN_ANOMALY":88.7113,"EPHEMERIS_TYPE":0,"CLASSIFICATION_TYPE":"U","NORAD_CAT_ID":57223,"ELEMENT_SET_NO":999,"REV_AT_EPOCH":11370,"BSTAR":9.4679e-6,"MEAN_MOTION_DOT":-7.6e-7,"MEAN_MOTION_DDOT":0},{"OBJECT_NAME":"STARLINK-5983","OBJECT_ID":"2023-094G","EPOCH":"2025-07-30T13:27:08.894304","MEAN_MOTION":15.0253793,"ECCENTRICITY":0.0001019,"INCLINATION":43.0031,"RA_OF_ASC_NODE":157.5231,"ARG_OF_PERICENTER":272.5456,"MEAN_ANOMALY":87.527,"EPHEMERIS_TYPE":0,"CLASSIFICATION_TYPE":"U","NORAD_CAT_ID":57224,"ELEMENT_SET_NO":999,"REV_AT_EPOCH":11388,"BSTAR":4.6669e-5,"MEAN_MOTION_DOT":4.27e-6,"MEAN_MOTION_DDOT":0},{"OBJECT_NAME":"STARLINK-6294","OBJECT_ID":"2023-094H","EPOCH":"2025-07-29T23:18:23.206752","MEAN_MOTION":15.02532617,"ECCENTRICITY":9.23e-5,"INCLINATION":43.0008,"RA_OF_ASC_NODE":160.8304,"ARG_OF_PERICENTER":280.1362,"MEAN_ANOMALY":79.9376,"EPHEMERIS_TYPE":0,"CLASSIFICATION_TYPE":"U","NORAD_CAT_ID":57225,"ELEMENT_SET_NO":999,"REV_AT_EPOCH":11361,"BSTAR":-1.422e-5,"MEAN_MOTION_DOT":-3.96e-6,"MEAN_MOTION_DDOT":0}]
