STARLINK-5788           
1 57148U 23090AZ  25211.83799254 -.00000036  00000+0  12400-4 0  9997
2 57148  43.0045  26.8901 0001207 265.6555  94.4150 15.02536263116052
STARLINK-5778           
1 57149U 23090BA  25211.45961455  .00000302  00000+0  37412-4 0  9995
2 57149  43.0049   3.1670 0001345 268.4996  91.5693 15.02536086117437
STARLINK-5780           
1 57150U 23090BB  25211.18764545  .00000303  00000+0  37511-4 0  9999
2 57150  43.0049  30.6114 0001197 275.5205  84.5501 15.02531873117095
STARLINK-5776           
1 57151U 23090BC  25211.18653269  .00000366  00000+0  42140-4 0  9993
2 57151  43.0033  30.5997 0001060 274.7304  85.3418 15.02534953115958
STARLINK-6164           
1 57152U 23090BD  25211.78816962 -.00000757  00000+0 -41008-4 0  9999
2 57152  43.0036  27.3772 0001145 273.6415  86.4296 15.02530394116044
STARLINK-5879           
1 57153U 23090BE  25211.74525357 -.00000107  00000+0  71699-5 0  9999
2 57153  43.0049  14.8936 0001168 272.2896  87.7813 15.02532812116186
STARLINK-6106           
1 57154U 23090BF  25211.77928864 -.00000366  00000+0 -12041-4 0  9996
2 57154  43.0040  27.3091 0001081 277.6173  82.4547 15.02532534116042
STARLINK-6108           
1 57155U 23090BG  25211.83133270 -.00000333  00000+0 -95667-5 0  9993
2 57155  43.0042  26.8380 0001289 264.5305  95.5390 15.02537509116051
STARLINK-6137           
1 57156U 23090BH  25210.83749792  .00000395  00000+0  44355-4 0  9998
2 57156  43.0046  32.2812 0001328 270.1697  89.8994 15.02532292117048
STARLINK-5525           
1 57218U 23094A   25211.57606256  .00000453  00000+0  48577-4 0  9995
2 57218  43.0021 157.6363 0000318 298.2782  61.8028 15.02535216113703
STARLINK-5520           
1 57219U 23094B   25211.57272794  .00000867  00000+0  79220-4 0  9990
2 57219  43.0021 157.6147 0000903 276.0991  83.9748 15.02540144113889
STARLINK-5880           
1 57220U 23094C   25211.22480320  .00000397  00000+0  44442-4 0  9996
2 57220  43.0028 159.3003 0001233 266.8693  93.2008 15.02535270113653
STARLINK-5875           
1 57221U 23094D   25211.23812354  .00000261  00000+0  34399-4 0  9994
2 57221  43.0024 159.4039 0000859 276.2664  83.8080 15.02535377113659
STARLINK-5870           
1 57222U 23094E   25211.56385145 -.00001402  00000+0 -88700-4 0  9999
2 57222  43.0027 157.5476 0000947 279.6149  80.4586 15.02548293114331
STARLINK-5519           
1 57223U 23094F   25211.56718355 -.00000076  00000+0  94679-5 0  9991
2 57223  43.0009 157.5677 0001075 271.3606  88.7113 15.02534589113705
STARLINK-5983           
1 57224U 23094G   25211.56051961  .00000427  00000+0  46669-4 0  9999
2 57224  43.0031 157.5231 0001019 272.5456  87.5270 15.02537930113884
STARLINK-6294           
1 57225U 23094H   25210.97110193 -.00000396  00000+0 -14220-4 0  9992
2 57225  43.0008 160.8304 0000923 280.1362  79.9376 15.02532617113611
